#dP2022 11 13  0  0  0.00000000      97 __u+U IGS14 FIT  IAC
## 2236      0.00000000   900.00000000 59896 0.0000000000000
+  117   C06C07C08C09C10C11C12C13C14C16C19C20C21C22C23C24C25
+        C26C27C28C29C30C32C33C34C35C36C37C38C39C40C41C42C43
+        C44C45C46E01E02E03E04E05E08E09E10E11E12E13E14E15E18
+        E19E21E24E25E26E27E30E31E33E34E36G01G02G03G04G05G06
+        G07G08G09G10G11G12G13G14G15G16G17G18G19G20G21G22G23
+        G24G25G26G27G29G30G31G32J02J03J04R01R02R03R04R05R07
+        R08R09R11R12R13R14R15R17R18R19R20R21R22R24R25  0  0
++         7  8  8  7  7  6  6  7  6  7  5  6  5  5  6  6  6
++         6  6  6  6  6  6  6  6  6  6  6  7  6  7  6  6  6
++         6  6  6  4  4  4  4  4  4  4  4  4  4  4  5  4  4
++         4  4  4  4  4  4  4  4  4  4  4  3  3  3  3  3  4
++         3  3  3  3  4  3  3  3  3  3  4  3  3  3  4  4  3
++         3  3  3  3  3  3  4  4  9  9 10  7  6  6  6  6  6
++         6  6  6  6  7  6  6  6  6  7  7  6  8  6 11  0  0
%c M  cc GPS ccc cccc cccc cccc cccc ccccc ccccc ccccc ccccc
%c cc cc ccc ccc cccc cccc cccc cccc ccccc ccccc ccccc ccccc
%f  1.2500000  1.025000000  0.00000000000  0.000000000000000
%f  0.0000000  0.000000000  0.00000000000  0.000000000000000
%i    0    0    0    0      0      0      0      0         0
%i    0    0    0    0      0      0      0      0         0
/* INFORMATION & ANALYSIS CENTER (IAC)            FINAL DATA
/* S/V CLOCKS ARE ALIGNED TO GNSS TIME                      
/* G:C1WC2W R:C1PC2P E:C1XC5X C:C2IC6I J:C1CC2S             
/* PCV:IGS14_2233 OL/AL:FES2004  NONE     YN ORB:CoN CLK:CoN
*  2022 11 13 17  0  0.00000000
PC06   -746.287325  30262.113636 -29260.615227      1.763241
PC07 -16195.986646  29027.007601  25912.887936    219.318843
PC08 -11999.114225  40486.658370   1869.694850    511.170143
PC09   7293.206471  34026.456078 -23047.771449   -808.216570
PC10  -7386.179235  29188.912546  29660.312021     68.832834
PC11 -16600.308776 -21043.369912  -7632.263841   -294.544525
PC12   -630.694718 -18535.587537 -20799.948008    300.037886
PC13  -5807.160662  41366.395724  -6608.029509    132.361000
PC14 -10402.847658 -12649.624993  22598.512959    649.874952
PC16  -5152.355570  26915.135514 -31790.595164    117.357501
PC19  19385.315040   6459.154142 -18995.623286   -914.795722
PC20   1781.345880  16007.785035 -22782.719736    838.352842
PC21  18263.129156 -16577.427605  13075.096106   -814.107474
PC22  26659.569547  -7213.807188  -4075.791797   -795.846535
PC23 -16698.938064   5388.652693 -21697.712661   -878.075533
PC24    252.807606 -27291.993528  -5747.475639   -812.220804
PC25 -12697.672876 -14380.984795 -20266.045856     24.130815
PC26  10571.169460 -23760.133382  10057.272642    -35.395130
PC27  -8195.294522  13783.502515  22822.262911     50.816957
PC28 -21182.510394  -1298.321936  18124.676988     35.560677
PC29  22828.586928  15942.686181  -1877.864227     40.020477
PC30   9906.411875  21109.521986  15314.484984      0.946961
PC32 -18208.917857  16690.590365 -12975.782567   -719.728822
PC33 -19328.491957  -6460.241152  19056.084375   -912.714117
PC34 -10952.268212 -21243.756345 -14426.203651     38.495258
PC35  21951.588536   1875.562961 -17115.031903     86.581507
PC36  12060.171807  15318.880068  19991.780788   -843.958984
PC37 -11778.340359  22705.689552 -11178.491729   -827.235819
PC38 -15563.636712  38172.365605   9337.102010     37.890179
PC39  -8324.722977  24135.367675 -33516.301975     -0.846166
PC40 -23669.947685  22888.096824  26221.097646     -8.021471
PC41 -26646.743988   6886.173970   4671.115612   -272.250601
PC42   -439.280993 -16463.282809  22565.447261   -656.862268
PC43 -22524.515861 -16453.011392   1115.486466     24.791107
PC44   7950.268735 -14073.018539 -22756.992192    112.712607
PC45  16579.624691  -5789.621990  21681.044758    -21.952502
PC46    929.019687  26909.987726   7416.849145    -12.754932
PE01  -5452.662238  23974.559043  16494.131407   -565.308541
PE02   5235.281364 -23890.205933 -16657.989023      2.378324
PE03  -5068.853357 -17525.083641  23297.564883   -619.614060
PE04  23761.016803  12776.637834 -12178.913570  -1157.785883
PE05  17034.991596 -12078.403999  20971.915642   -125.006228
PE08 -23807.135373 -12636.967685  12219.009079   -631.750474
PE09  28920.627689    422.926381   6311.294089   -727.876557
PE10  18226.143213  13050.205717 -19340.043665   -490.566030
PE11  17177.642804   1431.296971 -24067.575367   1344.199761
PE12  16312.675362  21604.833581 -11960.159134   -275.075909
PE13 -17328.778602  -2434.800673  23880.084176    430.605684
PE14  29073.521689  -2702.064799 -13681.204870     55.621111
PE15 -16242.508477 -21781.414454  11748.953812    707.677122
PE18 -22276.729140   -293.578542   8190.141439   -747.358196
PE19   1966.276090  17274.287511 -23958.032587  -4006.344526
PE21 -18808.648502  22859.872900    326.709145   -494.426612
PE24  22360.941223  -7559.943855  17835.067870   -945.385511
PE25  18969.014706 -22716.518123    -11.710603   -592.587232
PE26  -7859.808393  18921.123556  21374.855041  -1840.935107
PE27 -22499.920650   8607.527119 -17204.070895   -438.729500
PE30 -12332.138365 -11345.286846 -24405.389245   -995.552003
PE31  12903.856369  10596.817815  24451.471776   -508.088698
PE33   5563.953051  28154.849643   7258.037768   -455.476853
PE34  -5734.655676 -28153.568633  -7083.957797    -14.424892
PE36   8247.705012 -18134.847545 -21885.063605   -460.311059
PG01 -14555.398665   1261.058413  21891.256024    252.360361
PG02  13647.616181  -5720.340519 -21430.158769   -638.011125
PG03 -21155.039661   9009.956244  13078.566466   -372.521259
PG04 -24417.880928    548.400396 -10563.119251    -87.064808
PG05  16651.197260   2945.123850 -20682.882786   -104.157132
PG06   5958.011310  25794.130165   1592.739688    517.268227
PG07  -8475.308811  17110.160262 -17829.072798    287.844630
PG08 -26074.480788  -6033.403509    -60.235859    -93.648429
PG09 -16516.014592   9628.391095 -18537.995526   -269.210891
PG10   7748.694170 -21307.060263  13728.208357    -11.747096
PG11  12046.951291  21383.978034 -10192.816416    -39.203607
PG12  21680.475466  -7056.480534  13268.347128   -303.819697
PG13  22169.127737  13558.895305  -6125.745853    423.935616
PG14 -10291.897128  21424.164539  11742.146059    -83.477023
PG15  26501.008920   3381.665709   -402.846450    -12.719051
PG16 -12747.873856  -8910.333163 -21856.827781   -526.889980
PG17  -2912.252578  14863.591685  22258.007106    677.573719
PG18   7164.935283 -18889.079525 -17168.049152    -20.661022
PG19   9549.634362  16704.564451  18191.095127    236.881426
PG20   7690.270989  14935.211824 -20603.656344    470.435463
PG21 -17369.761792  -7693.978467  19463.864339    156.128466
PG22 -12126.173733 -16824.851351  17115.237768    363.869637
PG23  15909.481881 -20870.084023   3573.599814     -1.038313
PG24  16850.471775   2601.601869  20122.065437     60.503698
PG25  20089.779097 -16489.032454   4393.027837    392.246007
PG26  -4113.382104 -17384.682651 -19648.595298    235.676479
PG27 -20863.092107 -12942.119397 -10849.987511    178.767989
PG29  18548.114926  -6482.213269 -17951.253676   -566.933721
PG30   -440.276590  24730.779527  -9235.345426   -536.729078
PG31  -6653.048760 -25449.924121   -183.197473   -200.060315
PG32  -1384.922373 -15852.671337  21441.670574   -295.031972
PJ02 -27481.762470  31854.418976   2285.857463     -0.119699
PJ03 -25484.090741  23100.720635  29513.603437     -4.573385
PJ04 -34015.937971  23512.198027  -3181.186588    112.971991
PR01 -22236.912240   8929.472365  -8742.512812     17.818175
PR02  -6434.128166  11530.175800 -21803.266594    -23.310676
PR03  12547.060135   7701.481201 -20775.274399     67.231889
PR04  24111.737243   -350.668817  -8268.440525    164.779635
PR05  22525.062408  -8089.313393   8783.889300    102.854335
PR07 -13366.448652  -7414.680330  20469.613850     44.251506
PR08 -24181.404385    449.134915   8212.642633    -68.064827
PR09   6042.804872 -24512.838014  -3894.106446     87.388968
PR11 -11159.602056   -862.807329 -22909.646223     20.806494
PR12 -12869.850362  17514.582942 -13343.031122     22.825445
PR13  -7041.706286  24407.577305   2325.582283    -28.833203
PR14   3731.019886  16974.184508  18677.016718     24.122490
PR15  11597.482814    -98.585072  22738.278148     92.773478
PR17  15579.974469  20106.839740   2231.506768    577.793450
PR18  17809.198371  11725.242688 -13946.747268     51.821019
PR19  11726.938939  -1289.278047 -22611.667691   -210.840380
PR20  -3262.671522 -17436.550140 -18331.929496    -82.070667
PR21 -16094.608839 -19759.965620   -540.963296   -349.409287
PR22 -17485.520068 -11651.081850  14499.703916     15.838004
PR24   3969.396894  17883.047843  17784.335230    126.274034
PR25 -14341.804558 -20913.662225  -2628.120414     46.234939
EOF
